IRIDIUM 36 [-]          
1 24967U 97056C   24050.44644477  .00000959  00000+0  31937-3 0  9994
2 24967  86.3994  16.1087 0002326  89.4541 270.6922 14.36637737382745
IRIDIUM 39 [-]          
1 25042U 97069D   24049.92869143  .00001233  00000+0  32800-3 0  9999
2 25042  86.3873  58.5743 0020320 118.8999 241.4246 14.47697540378866
IRIDIUM 38 [-]          
1 25043U 97069E   24049.79467660  .00000731  00000+0  23978-3 0  9991
2 25043  86.3906  76.8327 0000265 162.8783 197.2424 14.37098011376367
IRIDIUM 42 [-]          
1 25077U 97077A   24049.84601127  .00000688  00000+0  23306-3 0  9997
2 25077  86.3911  82.3945 0001593  96.1708 263.9670 14.35393875371698
IRIDIUM 44 [-]          
1 25078U 97077B   24049.77612819  .00000857  00000+0  27045-3 0  9992
2 25078  86.3905  65.6344 0002924 129.7177 230.4279 14.39212186374002
IRIDIUM 45 [-]          
1 25104U 97082A   24049.91154868  .00015952  00000+0  96835-3 0  9994
2 25104  86.3726 278.0966 0168370 313.0008  45.7213 14.99222874378967
IRIDIUM 24 [-]          
1 25105U 97082B   24050.35840693  .00000737  00000+0  22328-3 0  9994
2 25105  86.3884 285.2014 0009760 229.5055 130.5295 14.40990414373761
IRIDIUM 51 [-]          
1 25262U 98018A   24049.94912302  .00016518  00000+0  85094-3 0  9991
2 25262  86.3942 288.2514 0151259 261.0419  97.3670 15.06777463373435
